ONEWEB-0414             
1 50491U 21132Y   24253.61331027  .00000024  00000+0  28780-4 0  9991
2 50491  87.9069 103.9612 0001475  74.3999 285.7295 13.18684112136542
ONEWEB-0417             
1 50492U 21132Z   24253.62122506  .00000022  00000+0  23248-4 0  9995
2 50492  87.9077 103.9684 0001853  75.1289 285.0048 13.18685710136524
ONEWEB-0418             
1 50493U 21132AA  24253.55469215  .00000063  00000+0  12706-3 0  9990
2 50493  87.9072 103.9815 0002005  70.1518 289.9831 13.18685810137857
ONEWEB-0419             
1 50494U 21132AB  24253.57221849  .00000005  00000+0 -19444-4 0  9996
2 50494  87.9068 103.9922 0002034  82.4622 277.6741 13.18684437136493
ONEWEB-0420             
1 50495U 21132AC  24253.61489908  .00000049  00000+0  92092-4 0  9991
2 50495  87.9069 103.9924 0001518  90.7856 269.3450 13.18686279136495
ONEWEB-0421             
1 50496U 21132AD  24253.60857562  .00000090  00000+0  19586-3 0  9998
2 50496  87.9076 103.9657 0001381  73.9855 286.1430 13.18686386136536
ONEWEB-0424             
1 50497U 21132AE  24253.56747273  .00000004  00000+0 -23113-4 0  9999
2 50497  87.9071 103.9763 0002184  85.3521 274.7860 13.18684473136556
ONEWEB-0426             
1 50498U 21132AF  24253.60541282  .00000045  00000+0  82341-4 0  9999
2 50498  87.9066 103.9822 0001736  60.2060 299.9244 13.18686253136507
